STARLINK-35527          
1 66092U 25236G   25317.16671295 -.02111786  00000+0 -33661-1 0  9993
2 66092  53.1592 287.2162 0001183  75.9266 328.4343 15.55896098  5127
STARLINK-35500          
1 66093U 25236H   25317.16671295 -.02112235  00000+0 -33668-1 0  9991
2 66093  53.1591 287.2126 0001186  75.7638 330.5138 15.55896446  5124
STARLINK-35528          
1 66094U 25236J   25317.16671295 -.02113710  00000+0 -33694-1 0  9990
2 66094  53.1591 287.2086 0001168  78.0663 330.1274 15.55897713  5129
STARLINK-35559          
1 66095U 25236K   25317.16671295 -.02123267  00000+0 -33850-1 0  9993
2 66095  53.1588 287.2049 0001123  75.8253 334.2738 15.55909596  5129
STARLINK-34386          
1 66096U 25236L   25317.16671295 -.02112867  00000+0 -33679-1 0  9997
2 66096  53.1587 287.2002 0001218  79.4304 332.5980 15.55896641  5126
STARLINK-35613          
1 66097U 25236M   25317.16671295 -.02117140  00000+0 -33744-1 0  9990
2 66097  53.1591 287.1925 0001187  78.3181 337.5317 15.55905928  5129
STARLINK-34206          
1 66098U 25236N   25317.16671295 -.02114534  00000+0 -33707-1 0  9994
2 66098  53.1590 287.1881 0001210  74.1366 343.6415 15.55898399  5115
STARLINK-34460          
1 66099U 25236P   25317.16671295 -.02113911  00000+0 -33696-1 0  9990
2 66099  53.1587 287.1964 0001270  74.2258 339.7185 15.55897706  5123
STARLINK-35609          
1 66100U 25236Q   25317.16671295 -.02118512  00000+0 -33768-1 0  9995
2 66100  53.1591 287.1840 0001182  72.4128 347.2711 15.55906714  5064
STARLINK-35595          
1 66101U 25236R   25317.16671295 -.02112817  00000+0 -33670-1 0  9990
2 66101  53.1590 287.1796 0001304  74.3149 347.2863 15.55902731  5067
STARLINK-35599          
1 66102U 25236S   25317.16671295 -.02119310  00000+0 -33783-1 0  9991
2 66102  53.1591 287.1767 0001194  72.0618 351.4579 15.55905872  5060
STARLINK-35622          
1 66103U 25236T   25317.16671295 -.02119954  00000+0 -33793-1 0  9997
2 66103  53.1589 287.1681 0001175  71.3883 355.9629 15.55907508  5128
