CCSDS_OMM_VERS = 2.0
CREATION_DATE  = 
ORIGINATOR     = 

OBJECT_NAME    = STARLINK-35527
OBJECT_ID      = 2025-236G
CENTER_NAME    = EARTH
REF_FRAME      = TEME
TIME_SYSTEM    = UTC
MEAN_ELEMENT_THEORY = SGP/SGP4

EPOCH          = 2025-11-13T04:00:03.998880
MEAN_MOTION    = 15.55896098
ECCENTRICITY   = .0001183
INCLINATION    = 53.1592
RA_OF_ASC_NODE = 287.2162
ARG_OF_PERICENTER = 75.9266
MEAN_ANOMALY   = 328.4343

EPHEMERIS_TYPE = 0
CLASSIFICATION_TYPE = U
NORAD_CAT_ID   = 66092
ELEMENT_SET_NO = 999
REV_AT_EPOCH   = 512
BSTAR          = -.33661E-1
MEAN_MOTION_DOT = -.2111786E-1
MEAN_MOTION_DDOT = 0

CCSDS_OMM_VERS = 2.0
CREATION_DATE  = 
ORIGINATOR     = 

OBJECT_NAME    = STARLINK-35500
OBJECT_ID      = 2025-236H
CENTER_NAME    = EARTH
REF_FRAME      = TEME
TIME_SYSTEM    = UTC
MEAN_ELEMENT_THEORY = SGP/SGP4

EPOCH          = 2025-11-13T04:00:03.998880
MEAN_MOTION    = 15.55896446
ECCENTRICITY   = .0001186
INCLINATION    = 53.1591
RA_OF_ASC_NODE = 287.2126
ARG_OF_PERICENTER = 75.7638
MEAN_ANOMALY   = 330.5138

EPHEMERIS_TYPE = 0
CLASSIFICATION_TYPE = U
NORAD_CAT_ID   = 66093
ELEMENT_SET_NO = 999
REV_AT_EPOCH   = 512
BSTAR          = -.33668E-1
MEAN_MOTION_DOT = -.2112235E-1
MEAN_MOTION_DDOT = 0

CCSDS_OMM_VERS = 2.0
CREATION_DATE  = 
ORIGINATOR     = 

OBJECT_NAME    = STARLINK-35528
OBJECT_ID      = 2025-236J
CENTER_NAME    = EARTH
REF_FRAME      = TEME
TIME_SYSTEM    = UTC
MEAN_ELEMENT_THEORY = SGP/SGP4

EPOCH          = 2025-11-13T04:00:03.998880
MEAN_MOTION    = 15.55897713
ECCENTRICITY   = .0001168
INCLINATION    = 53.1591
RA_OF_ASC_NODE = 287.2086
ARG_OF_PERICENTER = 78.0663
MEAN_ANOMALY   = 330.1274

EPHEMERIS_TYPE = 0
CLASSIFICATION_TYPE = U
NORAD_CAT_ID   = 66094
ELEMENT_SET_NO = 999
REV_AT_EPOCH   = 512
BSTAR          = -.33694E-1
MEAN_MOTION_DOT = -.211371E-1
MEAN_MOTION_DDOT = 0

CCSDS_OMM_VERS = 2.0
CREATION_DATE  = 
ORIGINATOR     = 

OBJECT_NAME    = STARLINK-35559
OBJECT_ID      = 2025-236K
CENTER_NAME    = EARTH
REF_FRAME      = TEME
TIME_SYSTEM    = UTC
MEAN_ELEMENT_THEORY = SGP/SGP4

EPOCH          = 2025-11-13T04:00:03.998880
MEAN_MOTION    = 15.55909596
ECCENTRICITY   = .0001123
INCLINATION    = 53.1588
RA_OF_ASC_NODE = 287.2049
ARG_OF_PERICENTER = 75.8253
MEAN_ANOMALY   = 334.2738

EPHEMERIS_TYPE = 0
CLASSIFICATION_TYPE = U
NORAD_CAT_ID   = 66095
ELEMENT_SET_NO = 999
REV_AT_EPOCH   = 512
BSTAR          = -.3385E-1
MEAN_MOTION_DOT = -.2123267E-1
MEAN_MOTION_DDOT = 0

CCSDS_OMM_VERS = 2.0
CREATION_DATE  = 
ORIGINATOR     = 

OBJECT_NAME    = STARLINK-34386
OBJECT_ID      = 2025-236L
CENTER_NAME    = EARTH
REF_FRAME      = TEME
TIME_SYSTEM    = UTC
MEAN_ELEMENT_THEORY = SGP/SGP4

EPOCH          = 2025-11-13T04:00:03.998880
MEAN_MOTION    = 15.55896641
ECCENTRICITY   = .0001218
INCLINATION    = 53.1587
RA_OF_ASC_NODE = 287.2002
ARG_OF_PERICENTER = 79.4304
MEAN_ANOMALY   = 332.5980

EPHEMERIS_TYPE = 0
CLASSIFICATION_TYPE = U
NORAD_CAT_ID   = 66096
ELEMENT_SET_NO = 999
REV_AT_EPOCH   = 512
BSTAR          = -.33679E-1
MEAN_MOTION_DOT = -.2112867E-1
MEAN_MOTION_DDOT = 0

CCSDS_OMM_VERS = 2.0
CREATION_DATE  = 
ORIGINATOR     = 

OBJECT_NAME    = STARLINK-35613
OBJECT_ID      = 2025-236M
CENTER_NAME    = EARTH
REF_FRAME      = TEME
TIME_SYSTEM    = UTC
MEAN_ELEMENT_THEORY = SGP/SGP4

EPOCH          = 2025-11-13T04:00:03.998880
MEAN_MOTION    = 15.55905928
ECCENTRICITY   = .0001187
INCLINATION    = 53.1591
RA_OF_ASC_NODE = 287.1925
ARG_OF_PERICENTER = 78.3181
MEAN_ANOMALY   = 337.5317

EPHEMERIS_TYPE = 0
CLASSIFICATION_TYPE = U
NORAD_CAT_ID   = 66097
ELEMENT_SET_NO = 999
REV_AT_EPOCH   = 512
BSTAR          = -.33744E-1
MEAN_MOTION_DOT = -.211714E-1
MEAN_MOTION_DDOT = 0

CCSDS_OMM_VERS = 2.0
CREATION_DATE  = 
ORIGINATOR     = 

OBJECT_NAME    = STARLINK-34206
OBJECT_ID      = 2025-236N
CENTER_NAME    = EARTH
REF_FRAME      = TEME
TIME_SYSTEM    = UTC
MEAN_ELEMENT_THEORY = SGP/SGP4

EPOCH          = 2025-11-13T04:00:03.998880
MEAN_MOTION    = 15.55898399
ECCENTRICITY   = .000121
INCLINATION    = 53.1590
RA_OF_ASC_NODE = 287.1881
ARG_OF_PERICENTER = 74.1366
MEAN_ANOMALY   = 343.6415

EPHEMERIS_TYPE = 0
CLASSIFICATION_TYPE = U
NORAD_CAT_ID   = 66098
ELEMENT_SET_NO = 999
REV_AT_EPOCH   = 511
BSTAR          = -.33707E-1
MEAN_MOTION_DOT = -.2114534E-1
MEAN_MOTION_DDOT = 0

CCSDS_OMM_VERS = 2.0
CREATION_DATE  = 
ORIGINATOR     = 

OBJECT_NAME    = STARLINK-34460
OBJECT_ID      = 2025-236P
CENTER_NAME    = EARTH
REF_FRAME      = TEME
TIME_SYSTEM    = UTC
MEAN_ELEMENT_THEORY = SGP/SGP4

EPOCH          = 2025-11-13T04:00:03.998880
MEAN_MOTION    = 15.55897706
ECCENTRICITY   = .000127
INCLINATION    = 53.1587
RA_OF_ASC_NODE = 287.1964
ARG_OF_PERICENTER = 74.2258
MEAN_ANOMALY   = 339.7185

EPHEMERIS_TYPE = 0
CLASSIFICATION_TYPE = U
NORAD_CAT_ID   = 66099
ELEMENT_SET_NO = 999
REV_AT_EPOCH   = 512
BSTAR          = -.33696E-1
MEAN_MOTION_DOT = -.2113911E-1
MEAN_MOTION_DDOT = 0

CCSDS_OMM_VERS = 2.0
CREATION_DATE  = 
ORIGINATOR     = 

OBJECT_NAME    = STARLINK-35609
OBJECT_ID      = 2025-236Q
CENTER_NAME    = EARTH
REF_FRAME      = TEME
TIME_SYSTEM    = UTC
MEAN_ELEMENT_THEORY = SGP/SGP4

EPOCH          = 2025-11-13T04:00:03.998880
MEAN_MOTION    = 15.55906714
ECCENTRICITY   = .0001182
INCLINATION    = 53.1591
RA_OF_ASC_NODE = 287.1840
ARG_OF_PERICENTER = 72.4128
MEAN_ANOMALY   = 347.2711

EPHEMERIS_TYPE = 0
CLASSIFICATION_TYPE = U
NORAD_CAT_ID   = 66100
ELEMENT_SET_NO = 999
REV_AT_EPOCH   = 506
BSTAR          = -.33768E-1
MEAN_MOTION_DOT = -.2118512E-1
MEAN_MOTION_DDOT = 0

CCSDS_OMM_VERS = 2.0
CREATION_DATE  = 
ORIGINATOR     = 

OBJECT_NAME    = STARLINK-35595
OBJECT_ID      = 2025-236R
CENTER_NAME    = EARTH
REF_FRAME      = TEME
TIME_SYSTEM    = UTC
MEAN_ELEMENT_THEORY = SGP/SGP4

EPOCH          = 2025-11-13T04:00:03.998880
MEAN_MOTION    = 15.55902731
ECCENTRICITY   = .0001304
INCLINATION    = 53.1590
RA_OF_ASC_NODE = 287.1796
ARG_OF_PERICENTER = 74.3149
MEAN_ANOMALY   = 347.2863

EPHEMERIS_TYPE = 0
CLASSIFICATION_TYPE = U
NORAD_CAT_ID   = 66101
ELEMENT_SET_NO = 999
REV_AT_EPOCH   = 506
BSTAR          = -.3367E-1
MEAN_MOTION_DOT = -.2112817E-1
MEAN_MOTION_DDOT = 0

CCSDS_OMM_VERS = 2.0
CREATION_DATE  = 
ORIGINATOR     = 

OBJECT_NAME    = STARLINK-35599
OBJECT_ID      = 2025-236S
CENTER_NAME    = EARTH
REF_FRAME      = TEME
TIME_SYSTEM    = UTC
MEAN_ELEMENT_THEORY = SGP/SGP4

EPOCH          = 2025-11-13T04:00:03.998880
MEAN_MOTION    = 15.55905872
ECCENTRICITY   = .0001194
INCLINATION    = 53.1591
RA_OF_ASC_NODE = 287.1767
ARG_OF_PERICENTER = 72.0618
MEAN_ANOMALY   = 351.4579

EPHEMERIS_TYPE = 0
CLASSIFICATION_TYPE = U
NORAD_CAT_ID   = 66102
ELEMENT_SET_NO = 999
REV_AT_EPOCH   = 506
BSTAR          = -.33783E-1
MEAN_MOTION_DOT = -.211931E-1
MEAN_MOTION_DDOT = 0

CCSDS_OMM_VERS = 2.0
CREATION_DATE  = 
ORIGINATOR     = 

OBJECT_NAME    = STARLINK-35622
OBJECT_ID      = 2025-236T
CENTER_NAME    = EARTH
REF_FRAME      = TEME
TIME_SYSTEM    = UTC
MEAN_ELEMENT_THEORY = SGP/SGP4

EPOCH          = 2025-11-13T04:00:03.998880
MEAN_MOTION    = 15.55907508
ECCENTRICITY   = .0001175
INCLINATION    = 53.1589
RA_OF_ASC_NODE = 287.1681
ARG_OF_PERICENTER = 71.3883
MEAN_ANOMALY   = 355.9629

EPHEMERIS_TYPE = 0
CLASSIFICATION_TYPE = U
NORAD_CAT_ID   = 66103
ELEMENT_SET_NO = 999
REV_AT_EPOCH   = 512
BSTAR          = -.33793E-1
MEAN_MOTION_DOT = -.2119954E-1
MEAN_MOTION_DDOT = 0

